ONEWEB-0721             
1 56725U 23068R   26203.17005450  .00000015  00000+0  18037-5 0  9998
2 56725  86.6736  74.3468 0001716  80.7165 279.4163 13.22471727162565
ONEWEB-0015             
1 61594U 24188A   26203.02449301 -.00000007  00000+0 -54887-4 0  9998
2 61594  87.8886  14.1549 0001356  81.3582 278.7700 13.11414931 89026
ONEWEB-0687             
1 61595U 24188B   26202.85767139  .00000035  00000+0  56568-4 0  9998
2 61595  87.9149 358.9783 0001797  78.2588 281.8745 13.17647808 90460
ONEWEB-0688             
1 61596U 24188C   26202.43073266  .00000056  00000+0  11129-3 0  9990
2 61596  87.9149 359.0628 0000866  60.2458 299.8760 13.17647912 90400
ONEWEB-0689             
1 61597U 24188D   26202.98210145 -.00000098  00000+0 -31164-3 0  9999
2 61597  87.8901  14.1260 0001972  84.8933 275.2420 13.11419193 89014
ONEWEB-0690             
1 61598U 24188E   26202.99228852  .00000348  00000+0  94489-3 0  9990
2 61598  87.8897  14.1346 0001807 112.0935 248.0385 13.11419014 89196
ONEWEB-0691             
1 61599U 24188F   26202.98720255  .00000153  00000+0  39467-3 0  9993
2 61599  87.8910  14.0474 0001550  81.4101 278.7203 13.11418496 89049
ONEWEB-0692             
1 61600U 24188G   26203.00753854  .00000518  00000+0  14262-2 0  9991
2 61600  87.8890  14.1503 0002614  91.1088 269.0340 13.11417704 89032
ONEWEB-0693             
1 61601U 24188H   26202.44255504  .00000096  00000+0  21468-3 0  9996
2 61601  87.9146 359.0790 0001671 120.3846 239.7451 13.17648501 90391
ONEWEB-0695             
1 61602U 24188J   26202.98380536 -.00000046  00000+0 -16674-3 0  9990
2 61602  87.8888  14.1470 0002299  84.7016 275.4375 13.11418984 89021
ONEWEB-0697             
1 61603U 24188K   26203.01602411  .00000305  00000+0  82478-3 0  9996
2 61603  87.8890  14.1312 0002597  93.3813 266.7613 13.11415836 89012
ONEWEB-0698             
1 61604U 24188L   26202.99398705  .00000403  00000+0  11002-2 0  9994
2 61604  87.8886  14.1489 0002718 112.0630 248.0787 13.11418373 89030
ONEWEB-0699             
1 61605U 24188M   26203.03427806  .00000406  00000+0  11273-2 0  9999
2 61605  87.8823  29.3206 0002470  93.5410 266.6000 13.10376072 87873
ONEWEB-0700             
1 61606U 24188N   26203.26506010  .00000442  00000+0  12297-2 0  9997
2 61606  87.8840  29.1894 0002377  92.4427 267.6973 13.10374258 87892
ONEWEB-0701             
1 61607U 24188P   26203.05295209  .00000602  00000+0  16888-2 0  9998
2 61607  87.8821  29.3172 0002603  95.5937 264.5487 13.10370945 87878
ONEWEB-0702             
1 61608U 24188Q   26202.73456774 -.00000519  00000+0 -15010-2 0  9994
2 61608  87.8908  14.1129 0002884  88.6940 271.4519 13.11416326 89013
ONEWEB-0704             
1 61609U 24188R   26203.04106818  .00000631  00000+0  17699-2 0  9999
2 61609  87.8826  29.3099 0002835  83.9938 276.1512 13.10373396 87851
ONEWEB-0705             
1 61610U 24188S   26203.27523819  .00000718  00000+0  20214-2 0  9993
2 61610  87.8827  29.2694 0002517  68.7971 291.3425 13.10373115 80055
ONEWEB-0706             
1 61611U 24188T   26203.25995270  .00000150  00000+0  39293-3 0  9994
2 61611  87.8823  29.2756 0002372  82.6181 277.5216 13.10375755 87972
ONEWEB-0707             
1 61612U 24188U   26203.26674212  .00000438  00000+0  12178-2 0  9997
2 61612  87.8828  29.2697 0002353  83.5258 276.6137 13.10373309 87915
ONEWEB-0708             
1 61613U 24188V   26203.05633502  .00000488  00000+0  13610-2 0  9999
2 61613  87.8815  29.3274 0001831  71.0630 289.0696 13.10369563 87869
